IRIDIUM 166             
1 43570U 18061B   23335.39696559  .00000717  00000+0  24890-3 0  9993
2 43570  86.3965  84.9095 0002259  93.9146 266.2308 14.34212748280275
IRIDIUM 158             
1 43571U 18061C   23335.36525240  .00000631  00000+0  21816-3 0  9999
2 43571  86.3963  84.9315 0002172  87.0706 273.0738 14.34213532280241
IRIDIUM 165             
1 43572U 18061D   23335.80924704  .00000804  00000+0  28008-3 0  9999
2 43572  86.3966  84.7750 0002206  85.1244 275.0203 14.34222312280324
IRIDIUM 155             
1 43573U 18061E   23335.77115711  .00001071  00000+0  37530-3 0  9993
2 43573  86.3965  84.7058 0002078  99.2222 260.9209 14.34215458280292
IRIDIUM 154             
1 43574U 18061F   23335.82192258  .00000801  00000+0  27902-3 0  9993
2 43574  86.3966  84.7727 0001704  93.6493 266.4897 14.34218338280340
IRIDIUM 163             
1 43575U 18061G   23335.31450767  .00000655  00000+0  22678-3 0  9992
2 43575  86.3962  84.9291 0001755  91.9791 268.1606 14.34211523280248
IRIDIUM 156             
1 43576U 18061H   23335.35891773  .00000793  00000+0  27595-3 0  9999
2 43576  86.3962  84.9165 0002242  90.1802 269.9651 14.34214384280231
IRIDIUM 164             
1 43577U 18061J   23335.40962417  .00000731  00000+0  25374-3 0  9995
2 43577  86.3964  84.9213 0002170  91.0371 269.1074 14.34229272280298
